ONEWEB-0160             
1 48060U 21025U   24035.28497299 -.00000137  00000+0 -40906-3 0  9996
2 48060  87.9013 132.1976 0002641 113.3922 246.7485 13.13468839140154
ONEWEB-0163             
1 48061U 21025V   24035.34687091  .00000090  00000+0  21254-3 0  9996
2 48061  87.9009 132.1815 0001419  99.6245 260.5044 13.13469825140283
ONEWEB-0159             
1 48062U 21025W   24035.33576186  .00000294  00000+0  76895-3 0  9995
2 48062  87.9007 132.1688 0001482 110.2249 249.9040 13.13470582140205
ONEWEB-0164             
1 48063U 21025X   24035.31830922  .00000155  00000+0  38983-3 0  9997
2 48063  87.9006 132.1817 0001847 102.4750 257.6586 13.13470117140186
ONEWEB-0167             
1 48064U 21025Y   24035.27148498  .00000118  00000+0  28722-3 0  9992
2 48064  87.9010 132.2009 0001531 103.4021 256.7279 13.13468566140160
ONEWEB-0166             
1 48065U 21025Z   24035.29290513 -.00000302  00000+0 -86126-3 0  9990
2 48065  87.9002 132.1849 0001592 113.7623 246.3673 13.13470090140249
ONEWEB-0151             
1 48066U 21025AA  24035.29449714 -.00000197  00000+0 -57512-3 0  9999
2 48066  87.9006 132.1947 0001968  98.6083 261.5269 13.13469981140181
ONEWEB-0170             
1 48067U 21025AB  24035.30243621 -.00000184  00000+0 -53755-3 0  9992
2 48067  87.9006 132.1946 0002390  99.0817 261.0583 13.13469963140141
